[{"OBJECT_NAME":"FLOCK 4G-24","OBJECT_ID":"2025-009AE","EPOCH":"2026-03-09T17:24:07.838208","MEAN_MOTION":15.27784978,"ECCENTRICITY":0.0001802,"INCLINATION":97.4061,"RA_OF_ASC_NODE":151.514,"ARG_OF_PERICENTER":280.2808,"MEAN_ANOMALY":79.8228,"EPHEMERIS_TYPE":0,"CLASSIFICATION_TYPE":"U","NORAD_CAT_ID":62637,"ELEMENT_SET_NO":999,"REV_AT_EPOCH":6373,"BSTAR":0.00038996067,"MEAN_MOTION_DOT":0.00010513,"MEAN_MOTION_DDOT":0},{"OBJECT_NAME":"STARLINK-33817","OBJECT_ID":"2025-076Q","EPOCH":"2026-03-09T02:18:45.876384","MEAN_MOTION":15.2757819,"ECCENTRICITY":0.00013701,"INCLINATION":43.0025,"RA_OF_ASC_NODE":324.7015,"ARG_OF_PERICENTER":281.3058,"MEAN_ANOMALY":78.764,"EPHEMERIS_TYPE":0,"CLASSIFICATION_TYPE":"U","NORAD_CAT_ID":63583,"ELEMENT_SET_NO":999,"REV_AT_EPOCH":5173,"BSTAR":0.0013443181,"MEAN_MOTION_DOT":0.00036914,"MEAN_MOTION_DDOT":0}]
